[{"OBJECT_NAME":"ION SCV-004","OBJECT_ID":"2022-002K","EPOCH":"2026-03-09T16:32:03.244416","MEAN_MOTION":15.29369331,"ECCENTRICITY":0.00072157,"INCLINATION":97.2961,"RA_OF_ASC_NODE":128.2294,"ARG_OF_PERICENTER":1.6783,"MEAN_ANOMALY":358.448,"EPHEMERIS_TYPE":0,"CLASSIFICATION_TYPE":"U","NORAD_CAT_ID":50993,"ELEMENT_SET_NO":999,"REV_AT_EPOCH":23008,"BSTAR":0.00023198467,"MEAN_MOTION_DOT":6.538e-5,"MEAN_MOTION_DDOT":0},{"OBJECT_NAME":"STARLINK-32780","OBJECT_ID":"2025-014M","EPOCH":"2026-03-09T05:38:48.319872","MEAN_MOTION":15.27593172,"ECCENTRICITY":0.00017025,"INCLINATION":43.0027,"RA_OF_ASC_NODE":157.3244,"ARG_OF_PERICENTER":263.2687,"MEAN_ANOMALY":96.7971,"EPHEMERIS_TYPE":0,"CLASSIFICATION_TYPE":"U","NORAD_CAT_ID":62746,"ELEMENT_SET_NO":999,"REV_AT_EPOCH":6318,"BSTAR":0.00089767083,"MEAN_MOTION_DOT":0.00024532,"MEAN_MOTION_DDOT":0}]
